CSS (TIANHE)            
1 48274U 21035A   24062.11504805  .00036343  00000+0  39354-3 0  9999
2 48274  41.4693  17.4324 0006833  77.3563 282.8040 15.62804767162331
